FENGYUN 1C DEB          
1 31878U 99025CKD 17340.26197776  .00000418  00000-0  94889-4 0  9997
2 31878  99.4876 154.5380 0140861  76.2470 285.4357 14.56640405554108
